start=new Date('2022-03-07T00:00:00.000Z').valueOf();
sats=[{"APOAPSIS":"548.230","EPHEMERIS_TYPE":"0","PERIOD":"95.592","MEAN_ELEMENT_THEORY":"SGP4","SEMIMAJOR_AXIS":"6925.345","ARG_OF_PERICENTER":"70.0789","MEAN_MOTION":"15.06401306","ELEMENT_SET_NO":"999","TLE_LINE1":"1 48596U 21041AV  22065.51208406  .00001965  00000-0  15078-3 0  9996","BSTAR":"0.00015078000000","OBJECT_TYPE":"PAYLOAD","OBJECT_ID":"2021-041AV","RA_OF_ASC_NODE":"234.5735","RCS_SIZE":"LARGE","TLE_LINE2":"2 48596  53.0542 234.5735 0001473  70.0789 290.0358 15.06401306 44830","ECCENTRICITY":"0.00014730","FILE":"3347638","NORAD_CAT_ID":"48596","MEAN_MOTION_DDOT":"0.0000000000000","MEAN_MOTION_DOT":"0.00001965","SITE":"AFETR","TIME_SYSTEM":"UTC","OBJECT_NAME":"STARLINK-2253","CENTER_NAME":"EARTH","GP_ID":"198068765","COUNTRY_CODE":"US","MEAN_ANOMALY":"290.0358","PERIAPSIS":"546.189","LAUNCH_DATE":"2021-05-15","INCLINATION":"53.0542","CLASSIFICATION_TYPE":"U","EPOCH":"2022-03-06T12:17:24.062784","REV_AT_EPOCH":"4483","REF_FRAME":"TEME","DECAY_DATE":null},{"TLE_LINE1":"1 48597U 21041AW  22065.51945648 -.00000274  00000-0  51596-6 0  9994","BSTAR":"0.00000051596000","OBJECT_TYPE":"PAYLOAD","OBJECT_ID":"2021-041AW","RA_OF_ASC_NODE":"234.5474","ARG_OF_PERICENTER":"87.6544","MEAN_MOTION":"15.06400977","ELEMENT_SET_NO":"999","SEMIMAJOR_AXIS":"6925.346","APOAPSIS":"548.268","EPHEMERIS_TYPE":"0","PERIOD":"95.592","MEAN_ELEMENT_THEORY":"SGP4","SITE":"AFETR","TIME_SYSTEM":"UTC","CENTER_NAME":"EARTH","OBJECT_NAME":"STARLINK-2255","MEAN_MOTION_DOT":"-0.00000274","NORAD_CAT_ID":"48597","MEAN_MOTION_DDOT":"0.0000000000000","RCS_SIZE":"LARGE","TLE_LINE2":"2 48597  53.0537 234.5474 0001527  87.6544 272.4620 15.06400977 45647","FILE":"3347638","ECCENTRICITY":"0.00015270","COUNTRY_CODE":"US","MEAN_ANOMALY":"272.4620","PERIAPSIS":"546.153","GP_ID":"198069517","DECAY_DATE":null,"REV_AT_EPOCH":"4564","REF_FRAME":"TEME","EPOCH":"2022-03-06T12:28:01.039872","LAUNCH_DATE":"2021-05-15","INCLINATION":"53.0537","CLASSIFICATION_TYPE":"U"},{"REF_FRAME":"TEME","REV_AT_EPOCH":"4488","DECAY_DATE":null,"CLASSIFICATION_TYPE":"U","LAUNCH_DATE":"2021-05-15","INCLINATION":"53.0533","EPOCH":"2022-03-06T20:31:01.679520","PERIAPSIS":"546.230","MEAN_ANOMALY":"282.4659","COUNTRY_CODE":"US","GP_ID":"198080572","MEAN_MOTION_DOT":"0.00002099","CENTER_NAME":"EARTH","OBJECT_NAME":"STARLINK-2256","TIME_SYSTEM":"UTC","SITE":"AFETR","FILE":"3348050","ECCENTRICITY":"0.00014130","TLE_LINE2":"2 48598  53.0533 233.0273 0001413  77.6488 282.4659 15.06401783 44889","RCS_SIZE":"LARGE","MEAN_MOTION_DDOT":"0.0000000000000","NORAD_CAT_ID":"48598","ELEMENT_SET_NO":"999","MEAN_MOTION":"15.06401783","ARG_OF_PERICENTER":"77.6488","RA_OF_ASC_NODE":"233.0273","OBJECT_ID":"2021-041AX","OBJECT_TYPE":"PAYLOAD","TLE_LINE1":"1 48598U 21041AX  22065.85488055  .00002099  00000-0  15974-3 0  9999","BSTAR":"0.00015974000000","PERIOD":"95.592","MEAN_ELEMENT_THEORY":"SGP4","EPHEMERIS_TYPE":"0","APOAPSIS":"548.187","SEMIMAJOR_AXIS":"6925.343"},{"MEAN_MOTION_DDOT":"0.0000000000000","NORAD_CAT_ID":"48599","FILE":"3348043","ECCENTRICITY":"0.00016720","TLE_LINE2":"2 48599  53.0547 208.2000 0001672  75.8345 284.2830 15.06399731 46046","RCS_SIZE":"LARGE","OBJECT_NAME":"STARLINK-2274","CENTER_NAME":"EARTH","SITE":"AFETR","TIME_SYSTEM":"UTC","MEAN_MOTION_DOT":"-0.00002377","SEMIMAJOR_AXIS":"6925.349","MEAN_ELEMENT_THEORY":"SGP4","PERIOD":"95.592","EPHEMERIS_TYPE":"0","APOAPSIS":"548.372","RA_OF_ASC_NODE":"208.2000","OBJECT_ID":"2021-041AY","OBJECT_TYPE":"PAYLOAD","TLE_LINE1":"1 48599U 21041AY  22065.81478462 -.00002377  00000-0 -14071-3 0  9995","BSTAR":"-0.00014071000000","ELEMENT_SET_NO":"999","MEAN_MOTION":"15.06399731","ARG_OF_PERICENTER":"75.8345","EPOCH":"2022-03-06T19:33:17.391168","CLASSIFICATION_TYPE":"U","LAUNCH_DATE":"2021-05-15","INCLINATION":"53.0547","DECAY_DATE":null,"REF_FRAME":"TEME","REV_AT_EPOCH":"4604","GP_ID":"198080559","PERIAPSIS":"546.056","MEAN_ANOMALY":"284.2830","COUNTRY_CODE":"US"},{"MEAN_MOTION_DOT":"-0.00002842","CENTER_NAME":"EARTH","OBJECT_NAME":"STARLINK-2275","TIME_SYSTEM":"UTC","SITE":"AFETR","TLE_LINE2":"2 48600  53.0534 223.0279 0001279  83.9943 276.1192 15.06378487 45837","RCS_SIZE":"LARGE","ECCENTRICITY":"0.00012790","FILE":"3348043","NORAD_CAT_ID":"48600","MEAN_MOTION_DDOT":"0.0000000000000","ARG_OF_PERICENTER":"83.9943","ELEMENT_SET_NO":"999","MEAN_MOTION":"15.06378487","OBJECT_ID":"2021-041AZ","OBJECT_TYPE":"PAYLOAD","TLE_LINE1":"1 48600U 21041AZ  22065.85213075 -.00002842  00000-0 -17207-3 0  9990","BSTAR":"-0.00017207000000","RA_OF_ASC_NODE":"223.0279","APOAPSIS":"548.165","MEAN_ELEMENT_THEORY":"SGP4","PERIOD":"95.594","EPHEMERIS_TYPE":"0","SEMIMAJOR_AXIS":"6925.414","REF_FRAME":"TEME","REV_AT_EPOCH":"4583","DECAY_DATE":null,"LAUNCH_DATE":"2021-05-15","INCLINATION":"53.0534","CLASSIFICATION_TYPE":"U","EPOCH":"2022-03-06T20:27:04.096800","COUNTRY_CODE":"US","PERIAPSIS":"546.394","MEAN_ANOMALY":"276.1192","GP_ID":"198080558"},{"RCS_SIZE":"LARGE","TLE_LINE2":"2 48602  53.0541 209.2443 0001393  72.7964 287.3178 15.06406317 45991","FILE":"3347638","ECCENTRICITY":"0.00013930","NORAD_CAT_ID":"48602","MEAN_MOTION_DDOT":"0.0000000000000","MEAN_MOTION_DOT":"0.00002715","SITE":"AFETR","TIME_SYSTEM":"UTC","OBJECT_NAME":"STARLINK-2713","CENTER_NAME":"EARTH","APOAPSIS":"548.159","EPHEMERIS_TYPE":"0","PERIOD":"95.592","MEAN_ELEMENT_THEORY":"SGP4","SEMIMAJOR_AXIS":"6925.329","ARG_OF_PERICENTER":"72.7964","MEAN_MOTION":"15.06406317","ELEMENT_SET_NO":"999","TLE_LINE1":"1 48602U 21041BB  22065.58257681  .00002715  00000-0  20106-3 0  9992","BSTAR":"0.00020106000000","OBJECT_ID":"2021-041BB","OBJECT_TYPE":"PAYLOAD","RA_OF_ASC_NODE":"209.2443","INCLINATION":"53.0541","LAUNCH_DATE":"2021-05-15","CLASSIFICATION_TYPE":"U","EPOCH":"2022-03-06T13:58:54.636384","REV_AT_EPOCH":"4599","REF_FRAME":"TEME","DECAY_DATE":null,"GP_ID":"198069017","COUNTRY_CODE":"US","MEAN_ANOMALY":"287.3178","PERIAPSIS":"546.229"},{"COUNTRY_CODE":"US","MEAN_ANOMALY":"288.2893","PERIAPSIS":"546.063","GP_ID":"198080557","DECAY_DATE":null,"REV_AT_EPOCH":"4610","REF_FRAME":"TEME","EPOCH":"2022-03-06T18:15:37.415808","INCLINATION":"53.0530","LAUNCH_DATE":"2021-05-15","CLASSIFICATION_TYPE":"U","BSTAR":"0.00030340000000","TLE_LINE1":"1 48603U 21041BC  22065.76084972  .00004242  00000-0  30340-3 0  9992","OBJECT_TYPE":"PAYLOAD","OBJECT_ID":"2021-041BC","RA_OF_ASC_NODE":"203.4454","ARG_OF_PERICENTER":"71.8268","MEAN_MOTION":"15.06416507","ELEMENT_SET_NO":"999","SEMIMAJOR_AXIS":"6925.298","APOAPSIS":"548.263","EPHEMERIS_TYPE":"0","MEAN_ELEMENT_THEORY":"SGP4","PERIOD":"95.591","TIME_SYSTEM":"UTC","SITE":"AFETR","CENTER_NAME":"EARTH","OBJECT_NAME":"STARLINK-2714","MEAN_MOTION_DOT":"0.00004242","NORAD_CAT_ID":"48603","MEAN_MOTION_DDOT":"0.0000000000000","RCS_SIZE":"LARGE","TLE_LINE2":"2 48603  53.0530 203.4454 0001588  71.8268 288.2893 15.06416507 46101","FILE":"3348043","ECCENTRICITY":"0.00015880"},{"REV_AT_EPOCH":"4570","REF_FRAME":"TEME","DECAY_DATE":null,"CLASSIFICATION_TYPE":"U","LAUNCH_DATE":"2021-05-15","INCLINATION":"53.0552","EPOCH":"2022-03-06T21:29:22.176384","MEAN_ANOMALY":"295.9685","PERIAPSIS":"546.151","COUNTRY_CODE":"US","GP_ID":"198080555","MEAN_MOTION_DOT":"0.00004708","TIME_SYSTEM":"UTC","SITE":"AFETR","OBJECT_NAME":"STARLINK-2757","CENTER_NAME":"EARTH","ECCENTRICITY":"0.00014060","FILE":"3348043","RCS_SIZE":"LARGE","TLE_LINE2":"2 48604  53.0552 232.8516 0001406  64.1448 295.9685 15.06429148 45709","MEAN_MOTION_DDOT":"0.0000000000000","NORAD_CAT_ID":"48604","MEAN_MOTION":"15.06429148","ELEMENT_SET_NO":"999","ARG_OF_PERICENTER":"64.1448","RA_OF_ASC_NODE":"232.8516","TLE_LINE1":"1 48604U 21041BD  22065.89539556  .00004708  00000-0  33448-3 0  9999","BSTAR":"0.00033448000000","OBJECT_TYPE":"PAYLOAD","OBJECT_ID":"2021-041BD","EPHEMERIS_TYPE":"0","MEAN_ELEMENT_THEORY":"SGP4","PERIOD":"95.590","APOAPSIS":"548.098","SEMIMAJOR_AXIS":"6925.259"},{"EPOCH":"2022-03-06T17:08:37.708512","LAUNCH_DATE":"2021-05-26","INCLINATION":"53.0555","CLASSIFICATION_TYPE":"U","DECAY_DATE":null,"REV_AT_EPOCH":"4402","REF_FRAME":"TEME","GP_ID":"198071490","COUNTRY_CODE":"US","MEAN_ANOMALY":"264.1874","PERIAPSIS":"546.262","NORAD_CAT_ID":"48638","MEAN_MOTION_DDOT":"0.0000000000000","RCS_SIZE":"LARGE","TLE_LINE2":"2 48638  53.0555 208.6602 0001355  95.9269 264.1874 15.06404459 44022","FILE":"3347706","ECCENTRICITY":"0.00013550","TIME_SYSTEM":"UTC","SITE":"AFETR","CENTER_NAME":"EARTH","OBJECT_NAME":"STARLINK-2758","MEAN_MOTION_DOT":"-0.00000689","SEMIMAJOR_AXIS":"6925.335","APOAPSIS":"548.138","EPHEMERIS_TYPE":"0","MEAN_ELEMENT_THEORY":"SGP4","PERIOD":"95.592","TLE_LINE1":"1 48638U 21044A   22065.71432533 -.00000689  00000-0 -27364-4 0  9994","BSTAR":"-0.00002736400000","OBJECT_ID":"2021-044A","OBJECT_TYPE":"PAYLOAD","RA_OF_ASC_NODE":"208.6602","ARG_OF_PERICENTER":"95.9269","MEAN_MOTION":"15.06404459","ELEMENT_SET_NO":"999"},{"COUNTRY_CODE":"US","MEAN_ANOMALY":"284.1966","PERIAPSIS":"546.226","GP_ID":"198081905","DECAY_DATE":null,"REV_AT_EPOCH":"4403","REF_FRAME":"TEME","EPOCH":"2022-03-06T18:22:55.946784","LAUNCH_DATE":"2021-05-26","INCLINATION":"53.0553","CLASSIFICATION_TYPE":"U","TLE_LINE1":"1 48639U 21044B   22065.76592531  .00003626  00000-0  26214-3 0  9999","BSTAR":"0.00026214000000","OBJECT_ID":"2021-044B","OBJECT_TYPE":"PAYLOAD","RA_OF_ASC_NODE":"208.4254","ARG_OF_PERICENTER":"75.9177","MEAN_MOTION":"15.06408830","ELEMENT_SET_NO":"999","SEMIMAJOR_AXIS":"6925.321","APOAPSIS":"548.147","EPHEMERIS_TYPE":"0","PERIOD":"95.592","MEAN_ELEMENT_THEORY":"SGP4","TIME_SYSTEM":"UTC","SITE":"AFETR","CENTER_NAME":"EARTH","OBJECT_NAME":"STARLINK-2739","MEAN_MOTION_DOT":"0.00003626","NORAD_CAT_ID":"48639","MEAN_MOTION_DDOT":"0.0000000000000","RCS_SIZE":"LARGE","TLE_LINE2":"2 48639  53.0553 208.4254 0001387  75.9177 284.1966 15.06408830 44035","ECCENTRICITY":"0.00013870","FILE":"3348098"}];
